PROBA-1                 
1 26958U 01049B   17357.47625399  .00000200  00000-0  22425-4 0  9993
2 26958  97.5914 318.1656 0075022  54.6761 306.1408 14.95166041879803
BIRD 2                  
1 26959U 01049C   17356.86796163  .00001646  00000-0  50655-4 0  9995
2 26959  97.8128 314.6390 0010311  76.4415 283.7975 15.35233307895260
CUTE-1 (CO-55)          
1 27844U 03031E   17356.92198752  .00000052  00000-0  43194-4 0  9999
2 27844  98.6885   3.1719 0010205 156.2822 203.8827 14.22083869751103
CUBESAT XI-IV (CO-57)   
1 27848U 03031J   17356.69173305  .00000037  00000-0  36584-4 0  9992
2 27848  98.6976   3.2803 0009880 166.3817 193.7629 14.21692089750954
GENESIS 1               
1 29252U 06029A   17357.22786246  .00000710  00000-0  45528-4 0  9993
2 29252  64.5052  27.9609 0034797 305.1004  54.6857 15.17115136630500
FALCONSAT-3             
1 30776U 07006E   17356.32301692  .00002867  00000-0  87560-4 0  9997
2 30776  35.4371 311.9303 0004151 240.3504 119.6808 15.33640084597140
GENESIS 2               
1 31789U 07028A   17357.23208844  .00000499  00000-0  35868-4 0  9995
2 31789  64.5044  66.5736 0008098 225.9408 134.1048 15.16372714577569
APRIZESAT 4             
1 35684U 09041D   17357.40613855  .00000066  00000-0  16425-4 0  9999
2 35684  98.1522 301.8996 0046625 206.7663 267.4869 14.79093681453107
APRIZESAT 3             
1 35686U 09041F   17357.02469395  .00000090  00000-0  16399-4 0  9994
2 35686  98.2787   4.5672 0074286 119.6524 241.2115 14.87158324455250
PROBA-2                 
1 36037U 09059B   17356.62595985  .00000022  00000-0  16165-4 0  9990
2 36037  98.2438 187.0473 0014450 114.2466 246.0242 14.53023823431495
APRIZESAT 5             
1 37792U 11044E   17357.41889020  .00000096  00000-0  22254-4 0  9997
2 37792  98.3618 146.4893 0058672 167.8918 192.3716 14.75198862341769
APRIZESAT 6             
1 37793U 11044F   17356.96234274  .00000094  00000-0  23317-4 0  9991
2 37793  98.3130 129.3544 0046771 194.6899 279.6572 14.72272028340891
TET-1                   
1 38710U 12039D   17357.51704624  .00002820  00000-0  58430-4 0  9992
2 38710  97.5695 321.5214 0000570 147.3131 212.8153 15.46672730303494
STSAT-2C                
1 39068U 13003A   17357.13571154  .00031332 -34404-6  24618-3 0  9991
2 39068  80.1926 224.1094 0304309 187.8937 171.7456 15.29405528261256
PROBA-V                 
1 39159U 13021A   17357.50807536 -.00000011  00000-0  13990-4 0  9990
2 39159  98.5804  68.9442 0004096 166.0240 194.1054 14.22953597240528
CUSAT 1                 
1 39266U 13055B   17357.49802272  .00003192  00000-0  87585-4 0  9999
2 39266  80.9846 171.0891 0655217  35.5303 328.7723 14.30980170219057
STPSAT-3                
1 39380U 13064A   17356.69488813  .00001524  00000-0  49627-4 0  9990
2 39380  40.5015  90.7638 0002768  79.9481 280.1645 15.35433201228751
APRIZESAT 7             
1 39416U 13066A   17357.19730991  .00000059  00000-0  13266-4 0  9997
2 39416  97.6088  38.8047 0041062 353.8074   6.2628 14.83763741221256
APRIZESAT 8             
1 39425U 13066K   17357.05876683  .00000064  00000-0  14647-4 0  9991
2 39425  97.6048  31.8963 0052232   9.7320 350.4892 14.81002186220853
BUGSAT-1 (TITA)         
1 40014U 14033E   17357.47554119  .00000046  00000-0  97576-5 0  9998
2 40014  97.9653 284.9990 0033351  58.8033 301.6442 14.94934276191485
SAUDISAT 4              
1 40016U 14033G   17357.22036408  .00000058  00000-0  15833-4 0  9997
2 40016  97.8376 239.0444 0049342  39.3353 321.1424 14.75159639189024
TABLETSAT-AURORA        
1 40017U 14033H   17357.48640411  .00000402  00000-0  44224-4 0  9990
2 40017  97.9496 279.7940 0024885  62.9077 297.4676 14.92977670191211
APRIZESAT 9             
1 40018U 14033J   17357.54456518  .00000065  00000-0  18388-4 0  9998
2 40018  97.8155 227.2376 0072830  65.1424 295.7332 14.69846388188297
APRIZESAT 10            
1 40019U 14033K   17357.56216453  .00000025  00000-0  12491-4 0  9998
2 40019  97.8078 220.8165 0085772  81.2197 279.8710 14.66914306187983
AISAT                   
1 40054U 14034B   17356.85966624  .00000483  00000-0  75626-4 0  9998
2 40054  98.1946  99.3738 0013638 156.6575 203.5256 14.77319010187571
CANX-4                  
1 40055U 14034C   17357.34762593  .00000120  00000-0  25828-4 0  9990
2 40055  98.1888  96.4607 0014479 172.9626 187.1788 14.74679163187439
CANX-5                  
1 40056U 14034D   17357.21339086  .00000120  00000-0  25887-4 0  9999
2 40056  98.1887  96.3212 0014486 173.5787 186.5609 14.74676599187405
TDS 1                   
1 40076U 14037H   17357.44061660  .00000079  00000-0  17414-4 0  9999
2 40076  98.3486 116.1612 0005765 171.1571 188.9756 14.81382689187045
TIANTUO 2               
1 40144U 14053B   17357.44553447  .00000903  00000-0  30189-4 0  9992
2 40144  97.3119  77.9270 0010570 321.8987  98.3778 15.33583987183992
TECHNOSAT               
1 42829U 17042E   17357.50860927  .00000205  00000-0  26288-4 0  9996
2 42829  97.6080 261.3379 0015702  66.1173 294.1689 14.90742353 24167
FLYING LAPTOP           
1 42831U 17042G   17356.83441175  .00000249  00000-0  30759-4 0  9990
2 42831  97.6083 260.6993 0015592  68.3511 291.9367 14.90770283 24053
